[{"OBJECT_NAME":"ORBCOMM-X","OBJECT_ID":"1991-050C","EPOCH":"2026-03-02T17:47:28.660416","MEAN_MOTION":14.4351072,"ECCENTRICITY":0.0004735,"INCLINATION":98.3083,"RA_OF_ASC_NODE":127.6523,"ARG_OF_PERICENTER":117.8792,"MEAN_ANOMALY":242.2879,"EPHEMERIS_TYPE":0,"CLASSIFICATION_TYPE":"U","NORAD_CAT_ID":21576,"ELEMENT_SET_NO":999,"REV_AT_EPOCH":81941,"BSTAR":0.00012268,"MEAN_MOTION_DOT":3.72e-6,"MEAN_MOTION_DDOT":0},{"OBJECT_NAME":"ORBCOMM FM01","OBJECT_ID":"1995-017A","EPOCH":"2026-03-02T15:20:32.538336","MEAN_MOTION":14.94506881,"ECCENTRICITY":0.0007215,"INCLINATION":69.9624,"RA_OF_ASC_NODE":147.6242,"ARG_OF_PERICENTER":280.5478,"MEAN_ANOMALY":79.4865,"EPHEMERIS_TYPE":0,"CLASSIFICATION_TYPE":"U","NORAD_CAT_ID":23545,"ELEMENT_SET_NO":999,"REV_AT_EPOCH":65106,"BSTAR":0.00073991,"MEAN_MOTION_DOT":7.926e-5,"MEAN_MOTION_DDOT":0},{"OBJECT_NAME":"ORBCOMM FM02","OBJECT_ID":"1995-017B","EPOCH":"2026-03-02T16:24:55.063296","MEAN_MOTION":14.96569964,"ECCENTRICITY":0.0008504,"INCLINATION":69.9637,"RA_OF_ASC_NODE":165.5809,"ARG_OF_PERICENTER":281.7528,"MEAN_ANOMALY":78.2675,"EPHEMERIS_TYPE":0,"CLASSIFICATION_TYPE":"U","NORAD_CAT_ID":23546,"ELEMENT_SET_NO":999,"REV_AT_EPOCH":65075,"BSTAR":0.00087342,"MEAN_MOTION_DOT":9.887e-5,"MEAN_MOTION_DDOT":0},{"OBJECT_NAME":"ORBCOMM FM08","OBJECT_ID":"1997-084A","EPOCH":"2026-03-02T18:57:26.695584","MEAN_MOTION":14.4694737,"ECCENTRICITY":0.0006607,"INCLINATION":45.0118,"RA_OF_ASC_NODE":205.4103,"ARG_OF_PERICENTER":133.7908,"MEAN_ANOMALY":226.3491,"EPHEMERIS_TYPE":0,"CLASSIFICATION_TYPE":"U","NORAD_CAT_ID":25112,"ELEMENT_SET_NO":999,"REV_AT_EPOCH":47881,"BSTAR":0.00066307,"MEAN_MOTION_DOT":2.288e-5,"MEAN_MOTION_DDOT":0},{"OBJECT_NAME":"ORBCOMM FM10","OBJECT_ID":"1997-084B","EPOCH":"2026-03-02T17:52:03.648288","MEAN_MOTION":14.46673505,"ECCENTRICITY":0.0004365,"INCLINATION":45.0139,"RA_OF_ASC_NODE":208.5122,"ARG_OF_PERICENTER":101.5667,"MEAN_ANOMALY":258.5675,"EPHEMERIS_TYPE":0,"CLASSIFICATION_TYPE":"U","NORAD_CAT_ID":25113,"ELEMENT_SET_NO":999,"REV_AT_EPOCH":65394,"BSTAR":0.00061757,"MEAN_MOTION_DOT":2.108e-5,"MEAN_MOTION_DDOT":0},{"OBJECT_NAME":"ORBCOMM FM11","OBJECT_ID":"1997-084C","EPOCH":"2026-03-02T17:25:02.869824","MEAN_MOTION":14.46409663,"ECCENTRICITY":0.0005209,"INCLINATION":45.0121,"RA_OF_ASC_NODE":209.7163,"ARG_OF_PERICENTER":100.2558,"MEAN_ANOMALY":259.8881,"EPHEMERIS_TYPE":0,"CLASSIFICATION_TYPE":"U","NORAD_CAT_ID":25114,"ELEMENT_SET_NO":999,"REV_AT_EPOCH":47889,"BSTAR":0.00057776,"MEAN_MOTION_DOT":1.951e-5,"MEAN_MOTION_DDOT":0},{"OBJECT_NAME":"ORBCOMM FM12","OBJECT_ID":"1997-084D","EPOCH":"2026-03-02T14:45:57.854880","MEAN_MOTION":14.46437613,"ECCENTRICITY":0.0004257,"INCLINATION":45.0128,"RA_OF_ASC_NODE":209.9678,"ARG_OF_PERICENTER":100.2056,"MEAN_ANOMALY":259.9276,"EPHEMERIS_TYPE":0,"CLASSIFICATION_TYPE":"U","NORAD_CAT_ID":25115,"ELEMENT_SET_NO":999,"REV_AT_EPOCH":47867,"BSTAR":0.00057447,"MEAN_MOTION_DOT":1.94e-5,"MEAN_MOTION_DDOT":0},{"OBJECT_NAME":"ORBCOMM FM09","OBJECT_ID":"1997-084E","EPOCH":"2026-03-02T14:30:36.869760","MEAN_MOTION":14.4626411,"ECCENTRICITY":0.0005204,"INCLINATION":45.0133,"RA_OF_ASC_NODE":211.2531,"ARG_OF_PERICENTER":82.7374,"MEAN_ANOMALY":277.4069,"EPHEMERIS_TYPE":0,"CLASSIFICATION_TYPE":"U","NORAD_CAT_ID":25116,"ELEMENT_SET_NO":999,"REV_AT_EPOCH":47887,"BSTAR":0.00057127,"MEAN_MOTION_DOT":1.921e-5,"MEAN_MOTION_DDOT":0},{"OBJECT_NAME":"ORBCOMM FM05","OBJECT_ID":"1997-084F","EPOCH":"2026-03-02T16:00:03.987648","MEAN_MOTION":14.4705802,"ECCENTRICITY":0.0002085,"INCLINATION":45.0124,"RA_OF_ASC_NODE":205.9741,"ARG_OF_PERICENTER":124.9006,"MEAN_ANOMALY":235.2042,"EPHEMERIS_TYPE":0,"CLASSIFICATION_TYPE":"U","NORAD_CAT_ID":25117,"ELEMENT_SET_NO":999,"REV_AT_EPOCH":47803,"BSTAR":0.00069199,"MEAN_MOTION_DOT":2.4e-5,"MEAN_MOTION_DDOT":0},{"OBJECT_NAME":"ORBCOMM FM06","OBJECT_ID":"1997-084G","EPOCH":"2026-03-02T10:18:49.370976","MEAN_MOTION":14.47232214,"ECCENTRICITY":0.00013488,"INCLINATION":45.0118,"RA_OF_ASC_NODE":206.5286,"ARG_OF_PERICENTER":151.8466,"MEAN_ANOMALY":237.6406,"EPHEMERIS_TYPE":0,"CLASSIFICATION_TYPE":"U","NORAD_CAT_ID":25118,"ELEMENT_SET_NO":999,"REV_AT_EPOCH":47892,"BSTAR":0.00067152991,"MEAN_MOTION_DOT":2.333e-5,"MEAN_MOTION_DDOT":0},{"OBJECT_NAME":"ORBCOMM FM07","OBJECT_ID":"1997-084H","EPOCH":"2026-03-02T18:44:44.641536","MEAN_MOTION":14.47238649,"ECCENTRICITY":0.0002648,"INCLINATION":45.0115,"RA_OF_ASC_NODE":205.5787,"ARG_OF_PERICENTER":110.0567,"MEAN_ANOMALY":250.057,"EPHEMERIS_TYPE":0,"CLASSIFICATION_TYPE":"U","NORAD_CAT_ID":25119,"ELEMENT_SET_NO":999,"REV_AT_EPOCH":47896,"BSTAR":0.00061364,"MEAN_MOTION_DOT":2.12e-5,"MEAN_MOTION_DDOT":0},{"OBJECT_NAME":"ORBCOMM FM03","OBJECT_ID":"1998-007B","EPOCH":"2026-03-02T15:14:54.822336","MEAN_MOTION":14.35283056,"ECCENTRICITY":0.0043343,"INCLINATION":107.9643,"RA_OF_ASC_NODE":306.7999,"ARG_OF_PERICENTER":158.3502,"MEAN_ANOMALY":201.9482,"EPHEMERIS_TYPE":0,"CLASSIFICATION_TYPE":"U","NORAD_CAT_ID":25158,"ELEMENT_SET_NO":999,"REV_AT_EPOCH":46111,"BSTAR":0.00038905,"MEAN_MOTION_DOT":9.95e-6,"MEAN_MOTION_DDOT":0},{"OBJECT_NAME":"ORBCOMM FM04","OBJECT_ID":"1998-007C","EPOCH":"2026-03-02T13:49:17.124960","MEAN_MOTION":14.35511668,"ECCENTRICITY":0.0039114,"INCLINATION":107.9628,"RA_OF_ASC_NODE":310.0718,"ARG_OF_PERICENTER":155.7461,"MEAN_ANOMALY":204.5531,"EPHEMERIS_TYPE":0,"CLASSIFICATION_TYPE":"U","NORAD_CAT_ID":25159,"ELEMENT_SET_NO":999,"REV_AT_EPOCH":46129,"BSTAR":0.0003887,"MEAN_MOTION_DOT":9.97e-6,"MEAN_MOTION_DDOT":0},{"OBJECT_NAME":"ORBCOMM FM17","OBJECT_ID":"1998-046A","EPOCH":"2026-03-02T11:25:01.633440","MEAN_MOTION":14.35727399,"ECCENTRICITY":4.336e-5,"INCLINATION":44.9935,"RA_OF_ASC_NODE":118.0301,"ARG_OF_PERICENTER":60.0367,"MEAN_ANOMALY":300.0524,"EPHEMERIS_TYPE":0,"CLASSIFICATION_TYPE":"U","NORAD_CAT_ID":25413,"ELEMENT_SET_NO":999,"REV_AT_EPOCH":44028,"BSTAR":0.00033400668,"MEAN_MOTION_DOT":8.32e-6,"MEAN_MOTION_DDOT":0},{"OBJECT_NAME":"ORBCOMM FM18","OBJECT_ID":"1998-046B","EPOCH":"2026-03-02T14:52:46.378272","MEAN_MOTION":14.39421604,"ECCENTRICITY":0.0002615,"INCLINATION":44.994,"RA_OF_ASC_NODE":27.6312,"ARG_OF_PERICENTER":158.7517,"MEAN_ANOMALY":201.344,"EPHEMERIS_TYPE":0,"CLASSIFICATION_TYPE":"U","NORAD_CAT_ID":25414,"ELEMENT_SET_NO":999,"REV_AT_EPOCH":44147,"BSTAR":0.00056579,"MEAN_MOTION_DOT":1.635e-5,"MEAN_MOTION_DDOT":0},{"OBJECT_NAME":"ORBCOMM FM19","OBJECT_ID":"1998-046C","EPOCH":"2026-03-02T15:10:55.522848","MEAN_MOTION":14.39246168,"ECCENTRICITY":0.0001315,"INCLINATION":44.9951,"RA_OF_ASC_NODE":29.9611,"ARG_OF_PERICENTER":157.9864,"MEAN_ANOMALY":11.8167,"EPHEMERIS_TYPE":0,"CLASSIFICATION_TYPE":"U","NORAD_CAT_ID":25415,"ELEMENT_SET_NO":999,"REV_AT_EPOCH":44142,"BSTAR":0.0005788,"MEAN_MOTION_DOT":1.67e-5,"MEAN_MOTION_DDOT":0},{"OBJECT_NAME":"ORBCOMM FM20","OBJECT_ID":"1998-046D","EPOCH":"2026-03-02T15:32:22.256448","MEAN_MOTION":14.37877302,"ECCENTRICITY":0.0001575,"INCLINATION":44.995,"RA_OF_ASC_NODE":36.661,"ARG_OF_PERICENTER":281.9467,"MEAN_ANOMALY":78.1205,"EPHEMERIS_TYPE":0,"CLASSIFICATION_TYPE":"U","NORAD_CAT_ID":25416,"ELEMENT_SET_NO":999,"REV_AT_EPOCH":44145,"BSTAR":0.00045482,"MEAN_MOTION_DOT":1.243e-5,"MEAN_MOTION_DDOT":0}]
