ORBCOMM-X               
1 21576U 91050C   26061.74130394  .00000372  00000+0  12268-3 0  9995
2 21576  98.3083 127.6523 0004735 117.8792 242.2879 14.43510720819418
ORBCOMM FM01            
1 23545U 95017A   26061.63926549  .00007926  00000+0  73991-3 0  9995
2 23545  69.9624 147.6242 0007215 280.5478  79.4865 14.94506881651065
ORBCOMM FM02            
1 23546U 95017B   26061.68397064  .00009887  00000+0  87342-3 0  9998
2 23546  69.9637 165.5809 0008504 281.7528  78.2675 14.96569964650753
ORBCOMM FM08            
1 25112U 97084A   26061.78989231  .00002288  00000+0  66307-3 0  9995
2 25112  45.0118 205.4103 0006607 133.7908 226.3491 14.46947370478817
ORBCOMM FM10            
1 25113U 97084B   26061.74448667  .00002108  00000+0  61757-3 0  9990
2 25113  45.0139 208.5122 0004365 101.5667 258.5675 14.46673505653946
ORBCOMM FM11            
1 25114U 97084C   26061.72572766  .00001951  00000+0  57776-3 0  9998
2 25114  45.0121 209.7163 0005209 100.2558 259.8881 14.46409663478893
ORBCOMM FM12            
1 25115U 97084D   26061.61525295  .00001940  00000+0  57447-3 0  9995
2 25115  45.0128 209.9678 0004257 100.2056 259.9276 14.46437613478670
ORBCOMM FM09            
1 25116U 97084E   26061.60459340  .00001921  00000+0  57127-3 0  9996
2 25116  45.0133 211.2531 0005204  82.7374 277.4069 14.46264110478878
ORBCOMM FM05            
1 25117U 97084F   26061.66671282  .00002400  00000+0  69199-3 0  9999
2 25117  45.0124 205.9741 0002085 124.9006 235.2042 14.47058020478030
ORBCOMM FM06            
1 25118U 97084G   26061.42973809  .00002333  00000+0  67153-3 0  9997
2 25118  45.0118 206.5286 0001348 151.8466 237.6406 14.47232214478922
ORBCOMM FM07            
1 25119U 97084H   26061.78107224  .00002120  00000+0  61364-3 0  9999
2 25119  45.0115 205.5787 0002648 110.0567 250.0570 14.47238649478961
ORBCOMM FM03            
1 25158U 98007B   26061.63535674  .00000995  00000+0  38905-3 0  9999
2 25158 107.9643 306.7999 0043343 158.3502 201.9482 14.35283056461113
ORBCOMM FM04            
1 25159U 98007C   26061.57589265  .00000997  00000+0  38870-3 0  9991
2 25159 107.9628 310.0718 0039114 155.7461 204.5531 14.35511668461296
ORBCOMM FM17            
1 25413U 98046A   26061.47571335  .00000832  00000+0  33401-3 0  9998
2 25413  44.9935 118.0301 0000433  60.0367 300.0524 14.35727399440289
ORBCOMM FM18            
1 25414U 98046B   26061.61998123  .00001635  00000+0  56579-3 0  9996
2 25414  44.9940  27.6312 0002615 158.7517 201.3440 14.39421604441475
ORBCOMM FM19            
1 25415U 98046C   26061.63258707  .00001670  00000+0  57880-3 0  9991
2 25415  44.9951  29.9611 0001315 157.9864  11.8167 14.39246168441422
ORBCOMM FM20            
1 25416U 98046D   26061.64747982  .00001243  00000+0  45482-3 0  9992
2 25416  44.9950  36.6610 0001575 281.9467  78.1205 14.37877302441451
